使用正则表达式，提取民航气象报文：METAR ZXXX 030100Z 30003MPS 0500 +DZ FG OVC001 15/15 Q1014=中的各项要素（报头、机场代号、时间等等）